FLOCK 4BE-17            
1 60492U 24149AA  26198.04123468  .00009395  00000+0  23285-3 0  9993
2 60492  97.3766 281.6623 0004521 142.2522 217.9042 15.40605177106850
FLOCK 4BE-22            
1 60494U 24149AC  26197.80102343  .00009868  00000+0  23331-3 0  9994
2 60494  97.3731 281.6594 0004810 149.3154 210.8375 15.42017658106866
FLOCK 4BE-34            
1 60495U 24149AD  26197.88351766  .00009726  00000+0  23023-3 0  9999
2 60495  97.3780 282.5835 0004997 156.6878 203.4597 15.41983232106907
FLOCK 4BE-32            
1 60497U 24149AF  26198.02602686  .00010922  00000+0  24863-3 0  9991
2 60497  97.3715 282.2953 0005075 153.5202 206.6306 15.43125219106931
FLOCK 4BE-11            
1 60501U 24149AK  26197.68104680  .00010529  00000+0  23355-3 0  9997
2 60501  97.3694 282.2039 0005155 154.5490 205.6013 15.43908786106906
FLOCK 4BE-24            
1 60505U 24149AP  26197.79412697  .00012546  00000+0  27568-3 0  9994
2 60505  97.3710 282.5882 0005171 164.8161 195.3243 15.44141481106930
FLOCK 4BE-29            
1 60509U 24149AT  26197.78362740  .00027857  00000+0  58011-3 0  9998
2 60509  97.3807 284.1262 0003649 172.7321 187.3982 15.45564453106980
FLOCK 4BE-2             
1 60511U 24149AV  26197.80093516  .00043143  00000+0  61823-3 0  9997
2 60511  97.3829 286.0140 0005363 168.9366 191.2008 15.56038813107100
FLOCK 4BE-13            
1 60512U 24149AW  26198.19587801  .00008228  00000+0  19084-3 0  9993
2 60512  97.3716 282.9345 0005234 149.8766 210.2784 15.42650098106996
FLOCK 4BE-27            
1 60513U 24149AX  26197.79591476  .00005394  00000+0  16158-3 0  9992
2 60513  97.3822 279.6700 0004175 176.4882 183.6392 15.34935178106681
FLOCK 4BE-9             
1 60514U 24149AY  26197.69615951  .00011929  00000+0  28513-3 0  9996
2 60514  97.3789 282.2704 0003834 166.7214 193.4134 15.41640499106860
FLOCK 4BE-6             
1 60516U 24149BA  26197.81386966  .00009219  00000+0  23048-3 0  9990
2 60516  97.3785 281.6903 0004503 168.1521 191.9832 15.40346521106836
FLOCK 4BE-14            
1 60517U 24149BB  26197.76917732  .00010395  00000+0  24668-3 0  9992
2 60517  97.3690 281.8103 0005529 171.7333 188.4006 15.41887264106880
FLOCK 4BE-1             
1 60518U 24149BC  26197.81868156  .00011365  00000+0  25497-3 0  9993
2 60518  97.3777 283.2454 0005160 171.1965 188.9375 15.43549394106940
FLOCK 4BE-28            
1 60519U 24149BD  26198.04496228  .00027587  00000+0  55835-3 0  9999
2 60519  97.3742 284.2976 0005271 169.9373 190.1983 15.46393426107053
FLOCK 4BE-5             
1 60559U 24149CV  26197.77341394  .00009442  00000+0  23044-3 0  9992
2 60559  97.3839 282.0742 0004182 166.6736 193.4622 15.41072688106838
